NORAD_CAT_ID,OBJECT_NAME,OBJECT_TYPE,EPOCH,MEAN_MOTION,ECCENTRICITY,INCLINATION,RA_OF_ASC_NODE,ARG_OF_PERICENTER,MEAN_ANOMALY,BSTAR,MEAN_MOTION_DOT,MEAN_MOTION_DDOT,TLE_LINE0,TLE_LINE1,TLE_LINE2,SEMIMAJOR_AXIS,PERIOD,APOGEE,PERIGEE,DECAYED
52837.0,STARLINK-4036,PAYLOAD,2023-02-22 04:07:22,15.08856685,0.000133,53.2169,343.9236,86.9667,273.1478,0.0017564,0.00027788,0.0,0 STARLINK-4036,1 52837U 22062H   23053.17178501  .00027788  00000-0  17564-2 0  9997,2 52837  53.2169 343.9236 0001330  86.9667 273.1478 15.08856685 37983,6917.829,95.436,540.614,538.774,0.0
52837.0,STARLINK-4036,PAYLOAD,2023-02-23 05:33:33,15.08836866,9.45e-05,53.2158,339.1644,77.4367,282.6731,0.0018366,0.0002906,0.0,0 STARLINK-4036,1 52837U 22062H   23054.23163815  .00029060  00000-0  18366-2 0  9993,2 52837  53.2158 339.1644 0000945  77.4367 282.6731 15.08836866 38149,6917.89,95.438,540.409,539.101,0.0
52837.0,STARLINK-4036,PAYLOAD,2023-02-24 03:48:55,15.08905789,0.0001066,53.2154,335.0021,70.707,289.4038,0.0021604,0.00034325,0.0,0 STARLINK-4036,1 52837U 22062H   23055.15897834  .00034325  00000-0  21604-2 0  9999,2 52837  53.2154 335.0021 0001066  70.7070 289.4038 15.08905789 38282,6917.679,95.433,540.282,538.807,0.0
52837.0,STARLINK-4036,PAYLOAD,2023-02-24 18:07:23,15.0884868,8.88e-05,53.2156,332.3247,122.1548,237.953,0.00017777,2.543e-05,0.0,0 STARLINK-4036,1 52837U 22062H   23055.75513862  .00002543  00000-0  17777-3 0  9995,2 52837  53.2156 332.3247 0000888 122.1548 237.9530 15.08848680 38378,6917.854,95.437,540.333,539.105,0.0
52837.0,STARLINK-4036,PAYLOAD,2023-02-25 00:28:56,15.08835604,9.79e-05,53.2155,331.136,102.6951,257.415,0.00070084,0.00010882,0.0,0 STARLINK-4036,1 52837U 22062H   23056.02010154  .00010882  00000-0  70084-3 0  9997,2 52837  53.2155 331.1360 0000979 102.6951 257.4150 15.08835604 38414,6917.894,95.438,540.436,539.082,0.0
52837.0,STARLINK-4036,PAYLOAD,2023-02-25 03:39:43,15.08839106,9.59e-05,53.2148,330.5406,102.2805,257.8295,0.0015357,0.00024237,0.0,0 STARLINK-4036,1 52837U 22062H   23056.15258276  .00024237  00000-0  15357-2 0  9990,2 52837  53.2148 330.5406 0000959 102.2805 257.8295 15.08839106 38439,6917.883,95.438,540.412,539.085,0.0
52837.0,STARLINK-4036,PAYLOAD,2023-02-26 03:30:30,15.08851,0.0001155,53.2148,326.0791,93.6927,266.4197,0.0014683,0.00023164,0.0,0 STARLINK-4036,1 52837U 22062H   23057.14619020  .00023164  00000-0  14683-2 0  9997,2 52837  53.2148 326.0791 0001155  93.6927 266.4197 15.08851000 38583,6917.847,95.437,540.511,538.913,0.0
52837.0,STARLINK-4036,PAYLOAD,2023-02-26 17:48:58,15.08855026,0.0001187,53.2145,323.4019,96.937,263.1757,0.00084814,0.00013241,0.0,0 STARLINK-4036,1 52837U 22062H   23057.74234787  .00013241  00000-0  84814-3 0  9995,2 52837  53.2145 323.4019 0001187  96.9370 263.1757 15.08855026 38675,6917.834,95.437,540.521,538.878,0.0
52837.0,STARLINK-4036,PAYLOAD,2023-02-27 03:21:17,15.08872733,0.0001133,53.2147,321.6185,81.707,278.4051,0.001439,0.00022708,0.0,0 STARLINK-4036,1 52837U 22062H   23058.13978163  .00022708  00000-0  14390-2 0  9991,2 52837  53.2147 321.6185 0001133  81.7070 278.4051 15.08872733 38738,6917.78,95.435,540.429,538.862,0.0
52837.0,STARLINK-4036,PAYLOAD,2023-02-28 03:12:02,15.08898248,0.0001212,53.2161,317.1569,95.2544,264.8587,0.0016698,0.00026429,0.0,0 STARLINK-4036,1 52837U 22062H   23059.13336271  .00026429  00000-0  16698-2 0  9997,2 52837  53.2161 317.1569 0001212  95.2544 264.8587 15.08898248 38882,6917.702,95.434,540.406,538.729,0.0
52837.0,STARLINK-4036,PAYLOAD,2023-02-28 22:16:43,15.08786114,0.0001401,53.2151,313.5898,141.1112,218.9981,0.00065623,0.00010156,0.0,0 STARLINK-4036,1 52837U 22062H   23059.92827693  .00010156  00000-0  65623-3 0  9990,2 52837  53.2151 313.5898 0001401 141.1112 218.9981 15.08786114 39009,6918.045,95.441,540.879,538.941,0.0
52837.0,STARLINK-4036,PAYLOAD,2023-02-28 23:52:06,15.08782845,0.0001356,53.2149,313.293,131.7962,228.3147,0.0007978,0.00012412,0.0,0 STARLINK-4036,1 52837U 22062H   23059.99452052  .00012412  00000-0  79780-3 0  9996,2 52837  53.2149 313.2930 0001356 131.7962 228.3147 15.08782845 39014,6918.055,95.441,540.858,538.982,0.0
52837.0,STARLINK-4036,PAYLOAD,2023-03-01 04:38:16,15.08801165,0.0001431,53.2147,312.4005,129.0965,231.0155,0.00073248,0.00011376,0.0,0 STARLINK-4036,1 52837U 22062H   23060.19324456  .00011376  00000-0  73248-3 0  9997,2 52837  53.2147 312.4005 0001431 129.0965 231.0155 15.08801165 39043,6917.999,95.44,540.854,538.874,0.0
52837.0,STARLINK-4036,PAYLOAD,2023-03-01 22:07:31,15.08838958,0.0001416,53.2148,309.1306,137.5596,222.5506,0.0014927,0.00023547,0.0,0 STARLINK-4036,1 52837U 22062H   23060.92189422  .00023547  00000-0  14927-2 0  9991,2 52837  53.2148 309.1306 0001416 137.5596 222.5506 15.08838958 39155,6917.884,95.438,540.728,538.769,0.0
52837.0,STARLINK-4036,PAYLOAD,2023-03-02 01:18:17,15.08847955,0.0001429,53.2149,308.5354,138.0882,222.022,0.0015897,0.00025108,0.0,0 STARLINK-4036,1 52837U 22062H   23061.05437345  .00025108  00000-0  15897-2 0  9998,2 52837  53.2149 308.5354 0001429 138.0882 222.0220 15.08847955 39177,6917.856,95.437,540.71,538.733,0.0
52837.0,STARLINK-4036,PAYLOAD,2023-03-02 17:12:08,15.08869928,0.0001397,53.2144,305.562,141.4244,218.6848,0.0013478,0.00021245,0.0,0 STARLINK-4036,1 52837U 22062H   23061.71676604  .00021245  00000-0  13478-2 0  9995,2 52837  53.2144 305.5620 0001397 141.4244 218.6848 15.08869928 39271,6917.789,95.436,540.62,538.687,0.0
52837.0,STARLINK-4036,PAYLOAD,2023-03-03 02:44:26,15.08890828,0.0001269,53.214,303.7778,141.8339,218.2743,0.0016848,0.00026665,0.0,0 STARLINK-4036,1 52837U 22062H   23062.11419506  .00026665  00000-0  16848-2 0  9991,2 52837  53.2140 303.7778 0001269 141.8339 218.2743 15.08890828 39338,6917.725,95.434,540.468,538.712,0.0
52837.0,STARLINK-4036,PAYLOAD,2023-03-03 21:49:03,15.08873904,0.0001151,53.215,300.2099,127.5956,232.514,0.0016472,0.00026049,0.0,0 STARLINK-4036,1 52837U 22062H   23062.90906921  .00026049  00000-0  16472-2 0  9999,2 52837  53.2150 300.2099 0001151 127.5956 232.5140 15.08873904 39452,6917.777,95.435,540.438,538.846,0.0
52837.0,STARLINK-4036,PAYLOAD,2023-03-03 23:24:26,15.08876383,0.0001147,53.2152,299.9127,124.7503,235.3597,0.001745,0.00027621,0.0,0 STARLINK-4036,1 52837U 22062H   23062.97530781  .00027621  00000-0  17450-2 0  9997,2 52837  53.2152 299.9127 0001147 124.7503 235.3597 15.08876383 39464,6917.769,95.435,540.428,538.841,0.0
52837.0,STARLINK-4036,PAYLOAD,2023-03-04 21:39:51,15.08850165,0.0001477,53.2144,295.7483,93.5506,266.5655,0.0018564,0.00029388,0.0,0 STARLINK-4036,1 52837U 22062H   23063.90267910  .00029388  00000-0  18564-2 0  9991,2 52837  53.2144 295.7483 0001477  93.5506 266.5655 15.08850165 39603,6917.849,95.437,540.736,538.693,0.0
52837.0,STARLINK-4036,PAYLOAD,2023-03-04 23:15:14,15.0883302,7.81e-05,53.2145,295.4507,80.3513,279.7567,0.0018112,0.00028649,0.0,0 STARLINK-4036,1 52837U 22062H   23063.96891917  .00028649  00000-0  18112-2 0  9995,2 52837  53.2145 295.4507 0000781  80.3513 279.7567 15.08833020 39617,6917.902,95.438,540.307,539.226,0.0
52837.0,STARLINK-4036,PAYLOAD,2023-03-05 21:30:38,15.08889811,0.0001292,53.2153,291.2891,78.9625,281.1512,0.0032853,0.00052459,0.0,0 STARLINK-4036,1 52837U 22062H   23064.89627871  .00052459  00000-0  32853-2 0  9998,2 52837  53.2153 291.2891 0001292  78.9625 281.1512 15.08889811 39752,6917.728,95.434,540.487,538.699,0.0
52837.0,STARLINK-4036,PAYLOAD,2023-03-06 00:41:24,15.08916354,0.0001181,53.215,290.694,72.2191,287.893,0.0039897,0.00063918,0.0,0 STARLINK-4036,1 52837U 22062H   23065.02875254  .00063918  00000-0  39897-2 0  9991,2 52837  53.2150 290.6940 0001181  72.2191 287.8930 15.08916354 39771,6917.647,95.433,540.329,538.695,0.0
52837.0,STARLINK-4036,PAYLOAD,2023-03-06 21:21:25,15.08866356,0.0001055,53.2149,286.8265,108.6564,251.4542,0.0034152,0.00054525,0.0,0 STARLINK-4036,1 52837U 22062H   23065.88987932  .00054525  00000-0  34152-2 0  9995,2 52837  53.2149 286.8265 0001055 108.6564 251.4542 15.08866356 39901,6917.8,95.436,540.395,538.935,0.0
52837.0,STARLINK-4036,PAYLOAD,2023-03-07 02:07:35,15.08844368,0.0001221,53.215,285.9342,102.9604,257.1524,0.0017338,0.00027416,0.0,0 STARLINK-4036,1 52837U 22062H   23066.08859966  .00027416  00000-0  17338-2 0  9999,2 52837  53.2150 285.9342 0001221 102.9604 257.1524 15.08844368 39931,6917.867,95.437,540.577,538.887,0.0
52837.0,STARLINK-4036,PAYLOAD,2023-03-07 21:12:12,15.08855041,0.0001141,53.2132,282.3659,83.6459,276.4663,0.0012585,0.00019806,0.0,0 STARLINK-4036,1 52837U 22062H   23066.88348188  .00019806  00000-0  12585-2 0  9999,2 52837  53.2132 282.3659 0001141  83.6459 276.4663 15.08855041 40050,6917.834,95.437,540.489,538.91,0.0
52837.0,STARLINK-4036,PAYLOAD,2023-03-08 14:41:27,15.08850088,9.67e-05,53.2118,279.0935,312.3855,47.7055,0.0019138,0.0003031,0.0,0 STARLINK-4036,1 52837U 22062H   23067.61212408  .00030310  00000-0  19138-2 0  9990,2 52837  53.2118 279.0935 0000967 312.3855  47.7055 15.08850088 40163,6917.85,95.437,540.384,539.046,0.0
52837.0,STARLINK-4036,PAYLOAD,2023-03-08 21:03:00,15.0885181,5.64e-05,53.2115,277.9041,95.8777,264.2279,0.0021004,0.00033309,0.0,0 STARLINK-4036,1 52837U 22062H   23067.87708599  .00033309  00000-0  21004-2 0  9995,2 52837  53.2115 277.9041 0000564  95.8777 264.2279 15.08851810 40207,6917.844,95.437,540.099,539.319,0.0
52837.0,STARLINK-4036,PAYLOAD,2023-03-09 19:18:23,15.08852225,0.00014,53.2153,273.7404,97.7075,262.4076,0.00054809,8.449e-05,0.0,0 STARLINK-4036,1 52837U 22062H   23068.80444296  .00008449  00000-0  54809-3 0  9997,2 52837  53.2153 273.7404 0001400  97.7075 262.4076 15.08852225 40349,6917.843,95.437,540.677,538.74,0.0
52837.0,STARLINK-4036,PAYLOAD,2023-03-09 20:53:47,15.08852859,0.0001077,53.2138,273.4444,94.672,265.4396,0.00087401,0.00013654,0.0,0 STARLINK-4036,1 52837U 22062H   23068.87068294  .00013654  00000-0  87401-3 0  9992,2 52837  53.2138 273.4444 0001077  94.6720 265.4396 15.08852859 40358,6917.841,95.437,540.451,538.961,0.0
